OBJECT_NAME,OBJECT_ID,EPOCH,MEAN_MOTION,ECCENTRICITY,INCLINATION,RA_OF_ASC_NODE,ARG_OF_PERICENTER,MEAN_ANOMALY,EPHEMERIS_TYPE,CLASSIFICATION_TYPE,NORAD_CAT_ID,ELEMENT_SET_NO,REV_AT_EPOCH,BSTAR,MEAN_MOTION_DOT,MEAN_MOTION_DDOT
QIANFAN-221,2026-155C,2026-07-21T14:30:17.261280,14.21088984,.00304167,89.0058,60.2154,208.0661,151.8891,0,U,69850,999,229,-.77153199E+0,-.1566197E-1,0
QIANFAN-222,2026-155D,2026-07-21T13:39:56.047680,14.18562778,.00291879,89.0062,60.2287,201.9716,158.0224,0,U,69851,999,228,.19268382E-4,.54E-6,0
QIANFAN-223,2026-155E,2026-07-21T13:31:51.571776,14.18585437,.00290863,89.0065,60.2281,201.4568,158.5404,0,U,69852,999,228,.19240398E-4,.54E-6,0
QIANFAN-224,2026-155F,2026-07-21T13:25:54.434784,14.20219802,.00301048,89.0049,60.2256,201.8588,158.1320,0,U,69853,999,228,.2010009E-4,.57E-6,0
QIANFAN-225,2026-155G,2026-07-21T15:02:22.395840,14.15124718,.00322275,89.0056,60.2189,198.4099,161.5925,0,U,69854,999,229,-.10246E+1,-.1860194E-1,0
QIANFAN-226,2026-155H,2026-07-21T13:20:19.700448,14.19636425,.0030281,89.0062,60.2265,201.4287,158.5638,0,U,69855,999,228,.20059809E-4,.57E-6,0
QIANFAN-227,2026-155J,2026-07-21T13:11:59.019360,14.19928340,.0030216,89.0061,60.2257,201.0007,158.9945,0,U,69856,999,228,.20055772E-4,.57E-6,0
QIANFAN-228,2026-155K,2026-07-21T13:09:18.496800,14.20222287,.00300483,89.0063,60.2254,201.4368,158.5566,0,U,69857,999,228,.19746931E-4,.57E-6,0
QIANFAN-229,2026-155L,2026-07-21T12:57:32.376384,14.18445562,.00353669,89.0051,60.2244,202.9223,157.0390,0,U,69858,999,228,-.10293802E+1,-.1981049E-1,0
QIANFAN-230,2026-155M,2026-07-21T13:44:29.584032,14.13947798,.00291899,89.0051,60.2285,199.3591,160.6490,0,U,69859,999,228,-.10525674E+1,-.1867621E-1,0
QIANFAN-231,2026-155N,2026-07-21T14:40:30.089568,14.20426512,.00323615,89.0054,60.2165,200.9278,159.0590,0,U,69860,999,229,-.10076802E+1,-.2008566E-1,0
QIANFAN-232,2026-155P,2026-07-21T14:35:34.433952,14.19253134,.00311056,89.0056,60.2158,210.3930,149.5457,0,U,69861,999,229,-.89879077E+0,-.1748511E-1,0
QIANFAN-233,2026-155Q,2026-07-21T14:33:50.634720,14.20442805,.00313352,89.0056,60.2157,201.3009,158.6879,0,U,69862,999,229,-.10029452E+1,-.1999761E-1,0
QIANFAN-234,2026-155R,2026-07-21T14:31:25.849056,14.21394420,.0029029,89.0061,60.2164,199.4482,160.5604,0,U,69863,999,229,-.99492975E+0,-.2016912E-1,0
QIANFAN-235,2026-155S,2026-07-21T14:29:29.320512,14.21061628,.00139969,89.0063,60.2195,213.9042,146.1255,0,U,69864,999,229,-.67844727E+0,-.1446639E-1,0
QIANFAN-236,2026-155T,2026-07-21T14:35:22.219584,14.18876915,.003326,89.0056,60.2168,195.4662,164.5515,0,U,69865,999,229,-.1051187E+1,-.2033838E-1,0
QIANFAN-237,2026-155U,2026-07-21T11:10:05.788128,14.21906668,.00257727,89.0062,60.2323,203.8288,156.1712,0,U,69866,999,226,-.10331046E+1,-.2105487E-1,0
QIANFAN-238,2026-155V,2026-07-21T14:28:48.953568,14.22795108,.0028255,89.0057,60.2155,196.9477,163.0774,0,U,69867,999,229,-.9087706E+0,-.1899863E-1,0
CZ-8A R/B,2026-155W,2026-07-21T13:47:55.425120,14.48273272,.01066057,88.9654,60.1152,82.0365,279.2923,0,U,69868,999,231,.78617832E-4,.334E-5,0
TRANSPORTER-17 OBJECT A,2026-156A,2026-07-21T15:06:18.211680,13.99858935,.00118858,98.9942,102.5979,182.0636,178.0481,0,U,69869,999,200,-.54325018E-4,-.123E-5,0
TRANSPORTER-17 OBJECT B,2026-156B,2026-07-21T15:07:37.980480,14.91656109,.00084315,97.7515,102.8438,98.2414,261.9762,0,U,69870,999,213,.1758812E-3,.1713E-4,0
TRANSPORTER-17 OBJECT C,2026-156C,2026-07-21T15:07:13.031616,14.91672851,.0007527,97.7550,102.8536,101.4652,258.7413,0,U,69871,999,194,.35681929E-4,.303E-5,0
TRANSPORTER-17 OBJECT D,2026-156D,2026-07-21T15:20:27.282624,14.90713278,.00050757,97.7516,102.8341,70.9852,289.1916,0,U,69872,999,213,.66796313E-4,.601E-5,0
TRANSPORTER-17 OBJECT E,2026-156E,2026-07-21T13:31:54.429888,14.91579808,.00073677,97.7552,102.7864,98.9561,261.2492,0,U,69873,999,212,.69760326E-4,.644E-5,0
TRANSPORTER-17 OBJECT F,2026-156F,2026-07-21T15:18:30.722976,14.90862871,.00047182,97.7520,102.8370,84.5018,275.6739,0,U,69874,999,213,.14798767E-3,.1403E-4,0
TRANSPORTER-17 OBJECT G,2026-156G,2026-07-21T15:17:49.737408,14.90909097,.00051445,97.7507,102.8354,81.3897,278.7904,0,U,69875,999,213,.10238113E-3,.955E-5,0
TRANSPORTER-17 OBJECT H,2026-156H,2026-07-21T13:27:26.760096,14.91898018,.00085672,97.7337,102.7753,105.5143,254.7022,0,U,69876,999,212,.23123751E-4,.178E-5,0
TRANSPORTER-17 OBJECT J,2026-156J,2026-07-21T15:11:58.446240,14.91347101,.00066247,97.7547,102.8476,93.5412,266.6565,0,U,69877,999,213,.23763628E-3,.2315E-4,0
TRANSPORTER-17 OBJECT K,2026-156K,2026-07-21T13:30:01.880928,14.91715647,.0008347,97.7511,102.7789,99.6405,260.5757,0,U,69878,999,212,.62972141E-4,.578E-5,0
TRANSPORTER-17 OBJECT L,2026-156L,2026-07-21T15:09:44.163360,14.91494568,.0007164,97.7549,102.8500,96.9100,263.2933,0,U,69879,999,213,.98918376E-4,.935E-5,0
TRANSPORTER-17 OBJECT M,2026-156M,2026-07-21T15:16:13.866240,14.91027359,.00063688,97.7453,102.8277,76.7012,283.4916,0,U,69880,999,213,.13353281E-3,.1266E-4,0
TRANSPORTER-17 OBJECT N,2026-156N,2026-07-21T15:16:13.676160,14.91021451,.00057711,97.7488,102.8339,82.2001,277.9873,0,U,69881,999,213,.63313986E-4,.571E-5,0
TRANSPORTER-17 OBJECT P,2026-156P,2026-07-21T15:15:58.880160,14.91058014,.00050991,97.7561,102.8462,96.8742,263.3057,0,U,69882,999,213,.2719036E-3,.2637E-4,0
TRANSPORTER-17 OBJECT Q,2026-156Q,2026-07-21T15:12:16.731936,14.91303713,.00065368,97.7542,102.8464,93.5821,266.6146,0,U,69883,999,213,.49649478E-4,.439E-5,0
TRANSPORTER-17 OBJECT R,2026-156R,2026-07-21T15:05:06.628416,14.91831142,.00085664,97.7512,102.8470,102.3963,257.8215,0,U,69884,999,213,.10883722E-3,.1043E-4,0
TRANSPORTER-17 OBJECT S,2026-156S,2026-07-21T15:10:23.481408,14.91441599,.00074127,97.7519,102.8435,93.0390,267.1677,0,U,69885,999,213,.5717475E-4,.516E-5,0
TRANSPORTER-17 OBJECT T,2026-156T,2026-07-21T15:05:02.043168,14.91831985,.00082682,97.7549,102.8543,104.7724,255.4411,0,U,69886,999,212,.69368491E-4,.645E-5,0
TRANSPORTER-17 OBJECT U,2026-156U,2026-07-21T15:05:24.567648,14.91799116,.00081296,97.7547,102.8537,104.7039,255.5081,0,U,69887,999,213,.21467409E-4,.161E-5,0
TRANSPORTER-17 OBJECT V,2026-156V,2026-07-21T15:12:04.418208,14.91328361,.00064756,97.7561,102.8500,95.0199,265.1758,0,U,69888,999,197,.13258127E-3,.1266E-4,0
TRANSPORTER-17 OBJECT W,2026-156W,2026-07-21T15:10:33.426912,14.91443166,.00070987,97.7548,102.8491,95.0802,265.1227,0,U,69889,999,213,.16836889E-3,.1628E-4,0
TRANSPORTER-17 OBJECT X,2026-156X,2026-07-21T15:04:20.000928,14.91882527,.00085452,97.7542,102.8535,105.2318,254.9846,0,U,69890,999,213,.64649853E-4,.598E-5,0
TRANSPORTER-17 OBJECT Y,2026-156Y,2026-07-21T15:09:15.595200,14.91524200,.00077747,97.7511,102.8429,94.7673,265.4434,0,U,69891,999,213,.6003224E-4,.546E-5,0
TRANSPORTER-17 OBJECT Z,2026-156Z,2026-07-21T15:03:49.997664,14.91926057,.00088131,97.7530,102.8516,104.5619,255.6578,0,U,69892,999,213,.11756173E-3,.1134E-4,0
TRANSPORTER-17 OBJECT AA,2026-156AA,2026-07-21T15:11:10.764672,14.91397527,.00070276,97.7541,102.8472,93.4088,266.7935,0,U,69893,999,213,.16640346E-3,.1606E-4,0
TRANSPORTER-17 OBJECT AB,2026-156AB,2026-07-21T15:09:04.785696,14.91537420,.00072776,97.7551,102.8514,98.0113,262.1931,0,U,69894,999,213,.61325178E-4,.559E-5,0
TRANSPORTER-17 OBJECT AC,2026-156AC,2026-07-21T15:08:52.167840,14.91553559,.00079062,97.7515,102.8438,95.4297,264.7823,0,U,69895,999,213,.67396418E-4,.62E-5,0
TRANSPORTER-17 OBJECT AD,2026-156AD,2026-07-21T15:02:43.005696,14.92005407,.00091487,97.7529,102.8526,105.6188,254.6041,0,U,69896,999,213,.11383574E-3,.1099E-4,0
TRANSPORTER-17 OBJECT AE,2026-156AE,2026-07-21T10:30:18.080064,14.90730118,.00036496,97.7570,102.6446,98.5573,261.6059,0,U,69897,999,210,.10383687E-3,.965E-5,0
TRANSPORTER-17 OBJECT AF,2026-156AF,2026-07-21T15:10:04.061280,14.91465690,.00070794,97.7548,102.8495,96.2302,263.9723,0,U,69898,999,213,.62067335E-4,.565E-5,0
TRANSPORTER-17 OBJECT AG,2026-156AG,2026-07-21T15:14:00.257280,14.91182738,.00066704,97.7512,102.8389,85.2872,274.9108,0,U,69899,999,213,.79082029E-4,.73E-5,0
TRANSPORTER-17 OBJECT AH,2026-156AH,2026-07-21T15:14:11.332032,14.91173309,.00060857,97.7564,102.8492,89.7112,270.4804,0,U,69900,999,213,.11406603E-3,.1077E-4,0
TRANSPORTER-17 OBJECT AJ,2026-156AJ,2026-07-21T15:15:21.456864,14.91081861,.00062146,97.7526,102.8404,84.1536,276.0390,0,U,69901,999,213,.59472587E-4,.534E-5,0
TRANSPORTER-17 OBJECT AK,2026-156AK,2026-07-21T15:16:30.897408,14.91003823,.00057939,97.7492,102.8341,81.6288,278.5587,0,U,69902,999,213,.12578069E-3,.1189E-4,0
TRANSPORTER-17 OBJECT AL,2026-156AL,2026-07-21T15:16:42.208896,14.90988217,.00050126,97.7576,102.8479,90.1972,269.9821,0,U,69903,999,213,.10762468E-3,.1008E-4,0
TRANSPORTER-17 OBJECT AM,2026-156AM,2026-07-21T15:08:29.321952,14.91583342,.00077671,97.7511,102.8430,97.2035,263.0067,0,U,69904,999,202,.87269473E-4,.82E-5,0
TRANSPORTER-17 OBJECT AN,2026-156AN,2026-07-21T15:16:10.914816,14.91041322,.00053376,97.7569,102.8475,88.5535,271.6295,0,U,69905,999,213,.24057978E-3,.2326E-4,0
TRANSPORTER-17 OBJECT AP,2026-156AP,2026-07-21T15:17:13.305984,14.90947708,.00055827,97.7475,102.8309,78.7523,281.4322,0,U,69906,999,213,.70727564E-4,.643E-5,0
TRANSPORTER-17 OBJECT AQ,2026-156AQ,2026-07-21T15:17:21.396480,14.90934773,.00052333,97.7499,102.8346,82.6850,277.4963,0,U,69907,999,213,.40088286E-4,.341E-5,0
TRANSPORTER-17 OBJECT AR,2026-156AR,2026-07-21T15:10:03.402912,14.91471825,.00075458,97.7519,102.8437,93.6169,266.5913,0,U,69908,999,213,.10366719E-3,.982E-5,0
TRANSPORTER-17 OBJECT AS,2026-156AS,2026-07-21T15:11:02.757984,14.91396720,.0007034,97.7538,102.8467,93.4123,266.7900,0,U,69909,999,213,.71704638E-4,.661E-5,0
TRANSPORTER-17 OBJECT AT,2026-156AT,2026-07-21T15:17:11.718816,14.90969834,.00048843,97.7545,102.8426,90.8838,269.2940,0,U,69910,999,213,.2650463E-3,.2563E-4,0
TRANSPORTER-17 OBJECT AU,2026-156AU,2026-07-21T15:20:41.530848,14.90697892,.00037174,97.7538,102.8377,87.8405,272.3239,0,U,69911,999,213,.88142986E-4,.81E-5,0
